OBJECT_NAME,OBJECT_ID,EPOCH,MEAN_MOTION,ECCENTRICITY,INCLINATION,RA_OF_ASC_NODE,ARG_OF_PERICENTER,MEAN_ANOMALY,EPHEMERIS_TYPE,CLASSIFICATION_TYPE,NORAD_CAT_ID,ELEMENT_SET_NO,REV_AT_EPOCH,BSTAR,MEAN_MOTION_DOT,MEAN_MOTION_DDOT
STARLINK-3256,2021-125AY,2026-05-16T03:42:23.533056,15.08837843,.000128,53.2171,296.2577,91.2408,268.8731,0,U,50202,999,24691,.62701609E-4,.71E-5,0
STARLINK-3257,2021-125AZ,2026-05-14T20:43:48.626400,15.08828487,.00015109,53.2196,302.1433,85.4864,274.6301,0,U,50203,999,24678,-.12999801E-3,-.2356E-4,0
STARLINK-3254,2021-125BA,2026-05-15T19:57:28.230336,15.08830035,.00013054,53.2177,297.7178,88.2764,271.8378,0,U,50204,999,24692,-.8976891E-5,-.431E-5,0
STARLINK-3260,2021-125BB,2026-05-14T15:29:46.189536,15.08839506,.00009408,53.2179,273.0311,88.7830,271.3270,0,U,50205,999,24711,.3680812E-4,.298E-5,0
TURKSAT 5B,2021-126A,2026-05-16T04:20:32.769312,1.00271497,.00043522,0.0696,343.6157,5.6433,351.7698,0,U,50212,999,1597,0,.157E-5,0
INMARSAT 6-F1,2021-128A,2026-05-16T01:07:09.179328,1.00271459,.00002847,0.0147,291.9319,278.1703,124.2211,0,U,50319,999,1593,0,-.16E-5,0
SHIYAN-12 01 (SY-12 01),2021-129A,2026-05-15T18:17:27.682944,1.00038687,.0003869,3.5913,80.3303,280.1635,234.7206,0,U,50321,999,1617,0,-.141E-5,0
SHIYAN-12 02 (SY-12 02),2021-129B,2026-05-15T18:10:43.330080,1.00489986,.0001973,3.5913,80.3412,49.9713,79.0884,0,U,50322,999,1617,0,-.11E-6,0
ZY-1 02E,2021-131A,2026-05-16T07:00:08.534880,14.35388224,.00009581,98.4439,214.0570,130.9034,229.2235,0,U,50465,999,22984,-.12630797E-4,-.79E-6,0
XW-3 (CAS-9),2021-131B,2026-05-16T04:34:47.502912,14.41324331,.00040783,98.4965,228.7565,176.8840,183.2376,0,U,50466,999,23050,.93159102E-4,.257E-5,0
ONEWEB-0389,2021-132A,2026-05-16T03:41:16.119456,13.17649493,.00021162,87.9162,12.2373,91.1067,269.0307,0,U,50469,999,21386,.14157999E-3,.68E-6,0
ONEWEB-0390,2021-132B,2026-05-16T03:43:41.566080,13.17649312,.00016548,87.9165,12.2376,86.0510,274.0811,0,U,50470,999,21386,.2059543E-5,.14E-6,0
ONEWEB-0391,2021-132C,2026-05-16T03:46:07.453344,13.17649966,.00021478,87.9166,12.2465,106.7410,253.3958,0,U,50471,999,21386,.13001802E-3,.63E-6,0
ONEWEB-0392,2021-132D,2026-05-16T06:19:13.065024,13.17648463,.00020775,87.9172,12.1917,93.3812,266.7557,0,U,50472,999,21391,.13896178E-3,.67E-6,0
ONEWEB-0393,2021-132E,2026-05-16T03:54:37.168416,13.17648030,.00019545,87.9162,12.2312,87.8435,272.2920,0,U,50473,999,21389,.19471773E-3,.88E-6,0
ONEWEB-0394,2021-132F,2026-05-16T01:52:39.802944,13.18686909,.00020729,87.9176,341.8312,91.0446,269.0924,0,U,50474,999,21736,.17956009E-3,.84E-6,0
ONEWEB-0395,2021-132G,2026-05-16T04:46:06.171456,13.11416925,.00017211,87.8912,27.4315,87.6743,272.4582,0,U,50475,999,21152,-.5635676E-3,-.187E-5,0
ONEWEB-0396,2021-132H,2026-05-16T01:42:56.857824,13.18687546,.00020128,87.9176,341.8449,89.2468,270.8895,0,U,50476,999,21740,.20981271E-3,.96E-6,0
ONEWEB-0397,2021-132J,2026-05-16T02:04:48.148896,13.18687735,.00020861,87.9177,341.8422,86.9190,273.2181,0,U,50477,999,21738,.22856701E-3,.103E-5,0
ONEWEB-0398,2021-132K,2026-05-16T05:49:36.050304,13.11412711,.00016102,87.8923,27.4106,84.5320,275.5992,0,U,50478,999,21142,.58318685E-4,.33E-6,0
ONEWEB-0399,2021-132L,2026-05-16T05:30:04.074048,13.11415006,.00022688,87.8922,27.4235,88.1541,271.9846,0,U,50479,999,21141,.14606795E-2,.53E-5,0
ONEWEB-0400,2021-132M,2026-05-15T23:43:57.490176,13.18687368,.00016612,87.9177,341.8512,89.1699,270.9623,0,U,50480,999,21736,.16619322E-3,.78E-6,0
ONEWEB-0401,2021-132N,2026-05-16T06:17:19.214880,13.18688237,.00019885,87.9179,341.7939,80.7265,279.4092,0,U,50481,999,21740,-.61926521E-3,-.231E-5,0
ONEWEB-0402,2021-132P,2026-05-16T01:45:21.954528,13.18685972,.00022231,87.9174,341.8215,76.4793,283.6586,0,U,50482,999,21740,.2193971E-3,.99E-6,0
ONEWEB-0403,2021-132Q,2026-05-16T02:21:47.226528,13.18686874,.00019107,87.9176,341.8403,90.7162,269.4189,0,U,50483,999,21736,-.16553207E-3,-.52E-6,0
ONEWEB-0404,2021-132R,2026-05-16T05:03:12.813408,13.11417727,.00019576,87.8920,27.4272,89.4659,270.6693,0,U,50484,999,21150,.9010078E-3,.332E-5,0
ONEWEB-0405,2021-132S,2026-05-16T06:19:43.082112,13.18685038,.0001364,87.9185,341.7907,90.7771,269.3518,0,U,50485,999,21778,.15999376E-3,.76E-6,0
ONEWEB-0406,2021-132T,2026-05-16T04:18:20.884032,13.18687262,.00022234,87.9167,341.8273,98.9818,261.1566,0,U,50486,999,21740,-.93470082E-4,-.24E-6,0
ONEWEB-0407,2021-132U,2026-05-16T02:19:20.557344,13.18689705,.0001737,87.9175,341.8333,78.8846,281.2481,0,U,50487,999,21733,-.14851361E-2,-.573E-5,0
ONEWEB-0409,2021-132V,2026-05-16T03:10:54.272640,13.11418737,.0001795,87.8924,27.4295,89.5338,270.5996,0,U,50488,999,21138,.7195499E-3,.268E-5,0
