STARLINK-3256           
1 50202U 21125AY  26136.15443904  .00000710  00000+0  62702-4 0  9996
2 50202  53.2171 296.2577 0001280  91.2408 268.8731 15.08837843246917
STARLINK-3257           
1 50203U 21125AZ  26134.86375725 -.00002356  00000+0 -13000-3 0  9994
2 50203  53.2196 302.1433 0001510  85.4864 274.6301 15.08828487246787
STARLINK-3254           
1 50204U 21125BA  26135.83157674 -.00000431  00000+0 -89769-5 0  9993
2 50204  53.2177 297.7178 0001305  88.2764 271.8378 15.08830035246925
STARLINK-3260           
1 50205U 21125BB  26134.64567349  .00000298  00000+0  36808-4 0  9990
2 50205  53.2179 273.0311 0000940  88.7830 271.3270 15.08839506247117
TURKSAT 5B              
1 50212U 21126A   26136.18093483  .00000157  00000+0  00000+0 0  9997
2 50212   0.0696 343.6157 0004352   5.6433 351.7698  1.00271497 15979
INMARSAT 6-F1           
1 50319U 21128A   26136.04663402 -.00000160  00000+0  00000+0 0  9991
2 50319   0.0147 291.9319 0000284 278.1703 124.2211  1.00271459 15938
SHIYAN-12 01 (SY-12 01) 
1 50321U 21129A   26135.76212596 -.00000141  00000+0  00000+0 0  9996
2 50321   3.5913  80.3303 0003869 280.1635 234.7206  1.00038687 16174
SHIYAN-12 02 (SY-12 02) 
1 50322U 21129B   26135.75744595 -.00000011  00000+0  00000+0 0  9991
2 50322   3.5913  80.3412 0001973  49.9713  79.0884  1.00489986 16172
ZY-1 02E                
1 50465U 21131A   26136.29176545 -.00000079  00000+0 -12631-4 0  9999
2 50465  98.4439 214.0570 0000958 130.9034 229.2235 14.35388224229840
XW-3 (CAS-9)            
1 50466U 21131B   26136.19082758  .00000257  00000+0  93159-4 0  9991
2 50466  98.4965 228.7565 0004078 176.8840 183.2376 14.41324331230508
ONEWEB-0389             
1 50469U 21132A   26136.15365879  .00000068  00000+0  14158-3 0  9990
2 50469  87.9162  12.2373 0002116  91.1067 269.0307 13.17649493213865
ONEWEB-0390             
1 50470U 21132B   26136.15534220  .00000014  00000+0  20595-5 0  9995
2 50470  87.9165  12.2376 0001654  86.0510 274.0811 13.17649312213861
ONEWEB-0391             
1 50471U 21132C   26136.15703071  .00000063  00000+0  13002-3 0  9995
2 50471  87.9166  12.2465 0002147 106.7410 253.3958 13.17649966213866
ONEWEB-0392             
1 50472U 21132D   26136.26334566  .00000067  00000+0  13896-3 0  9992
2 50472  87.9172  12.1917 0002077  93.3812 266.7557 13.17648463213914
ONEWEB-0393             
1 50473U 21132E   26136.16293019  .00000088  00000+0  19472-3 0  9998
2 50473  87.9162  12.2312 0001954  87.8435 272.2920 13.17648030213899
ONEWEB-0394             
1 50474U 21132F   26136.07823846  .00000084  00000+0  17956-3 0  9997
2 50474  87.9176 341.8312 0002072  91.0446 269.0924 13.18686909217369
ONEWEB-0395             
1 50475U 21132G   26136.19868254 -.00000187  00000+0 -56357-3 0  9997
2 50475  87.8912  27.4315 0001721  87.6743 272.4582 13.11416925211520
ONEWEB-0396             
1 50476U 21132H   26136.07149141  .00000096  00000+0  20981-3 0  9993
2 50476  87.9176 341.8449 0002012  89.2468 270.8895 13.18687546217409
ONEWEB-0397             
1 50477U 21132J   26136.08666839  .00000103  00000+0  22857-3 0  9996
2 50477  87.9177 341.8422 0002086  86.9190 273.2181 13.18687735217381
ONEWEB-0398             
1 50478U 21132K   26136.24277836  .00000033  00000+0  58319-4 0  9995
2 50478  87.8923  27.4106 0001610  84.5320 275.5992 13.11412711211424
ONEWEB-0399             
1 50479U 21132L   26136.22921382  .00000530  00000+0  14607-2 0  9998
2 50479  87.8922  27.4235 0002268  88.1541 271.9846 13.11415006211419
ONEWEB-0400             
1 50480U 21132M   26135.98885984  .00000078  00000+0  16619-3 0  9992
2 50480  87.9177 341.8512 0001661  89.1699 270.9623 13.18687368217367
ONEWEB-0401             
1 50481U 21132N   26136.26202795 -.00000231  00000+0 -61927-3 0  9993
2 50481  87.9179 341.7939 0001988  80.7265 279.4092 13.18688237217405
ONEWEB-0402             
1 50482U 21132P   26136.07317077  .00000099  00000+0  21940-3 0  9994
2 50482  87.9174 341.8215 0002223  76.4793 283.6586 13.18685972217408
ONEWEB-0403             
1 50483U 21132Q   26136.09846327 -.00000052  00000+0 -16553-3 0  9997
2 50483  87.9176 341.8403 0001910  90.7162 269.4189 13.18686874217369
ONEWEB-0404             
1 50484U 21132R   26136.21056497  .00000332  00000+0  90101-3 0  9993
2 50484  87.8920  27.4272 0001957  89.4659 270.6693 13.11417727211500
ONEWEB-0405             
1 50485U 21132S   26136.26369308  .00000076  00000+0  15999-3 0  9994
2 50485  87.9185 341.7907 0001364  90.7771 269.3518 13.18685038217780
ONEWEB-0406             
1 50486U 21132T   26136.17940838 -.00000024  00000+0 -93470-4 0  9994
2 50486  87.9167 341.8273 0002223  98.9818 261.1566 13.18687262217408
ONEWEB-0407             
1 50487U 21132U   26136.09676571 -.00000573  00000+0 -14851-2 0  9999
2 50487  87.9175 341.8333 0001737  78.8846 281.2481 13.18689705217337
ONEWEB-0409             
1 50488U 21132V   26136.13257260  .00000268  00000+0  71955-3 0  9993
2 50488  87.8924  27.4295 0001795  89.5338 270.5996 13.11418737211381
